{
  "type": "FeatureCollection",
  "features": [
    {
      "type": "Feature",
      "geometry": {
        "type": "Point",
        "coordinates": [
          -1.110735,
          37.944897
        ]
      },
      "properties": {
        "id": "1116",
        "id_jardin": 1116,
        "nombre": "Plaza Juan XXIII",
        "pedania": "Algezares",
        "tipo": "Arbolado Viario",
        "zona": "Ladera_Monte_Sur"
      }
    },
    {
      "type": "Feature",
      "geometry": {
        "type": "Point",
        "coordinates": [
          -1.120263,
          37.939536
        ]
      },
      "properties": {
        "id": "1126",
        "id_jardin": 1126,
        "nombre": "Subida a La Fuensanta",
        "pedania": "Algezares",
        "tipo": "Arbolado Viario",
        "zona": "Ladera_Monte_Sur"
      }
    },
    {
      "type": "Feature",
      "geometry": {
        "type": "Point",
        "coordinates": [
          -1.11669,
          37.94158
        ]
      },
      "properties": {
        "id": "1126_2",
        "id_jardin": 1126,
        "nombre": "Subida a La Fuensanta",
        "pedania": "Algezares",
        "tipo": "Arbolado Viario",
        "zona": "Ladera_Monte_Sur"
      }
    },
    {
      "type": "Feature",
      "geometry": {
        "type": "Point",
        "coordinates": [
          -1.115513,
          37.942747
        ]
      },
      "properties": {
        "id": "3548",
        "id_jardin": 3548,
        "nombre": "Pipican Pepe Serna",
        "pedania": "Algezares",
        "tipo": "Zona Verde",
        "zona": "Ladera_Monte_Sur"
      }
    },
    {
      "type": "Feature",
      "geometry": {
        "type": "Point",
        "coordinates": [
          -1.118292,
          37.937284
        ]
      },
      "properties": {
        "id": "3827",
        "id_jardin": 3827,
        "nombre": "Zona Verde Santuario de La Fuensanta",
        "pedania": "Algezares",
        "tipo": "Zona Verde",
        "zona": "Ladera_Monte_Sur"
      }
    },
    {
      "type": "Feature",
      "geometry": {
        "type": "Point",
        "coordinates": [
          -1.118281,
          37.9373
        ]
      },
      "properties": {
        "id": "3827_2",
        "id_jardin": 3827,
        "nombre": "Zona Verde Santuario de La Fuensanta",
        "pedania": "Algezares",
        "tipo": "Zona Verde",
        "zona": "Ladera_Monte_Sur"
      }
    },
    {
      "type": "Feature",
      "geometry": {
        "type": "Point",
        "coordinates": [
          -1.117695,
          37.937307
        ]
      },
      "properties": {
        "id": "3827_3",
        "id_jardin": 3827,
        "nombre": "Zona Verde Santuario de La Fuensanta",
        "pedania": "Algezares",
        "tipo": "Zona Verde",
        "zona": "Ladera_Monte_Sur"
      }
    },
    {
      "type": "Feature",
      "geometry": {
        "type": "Point",
        "coordinates": [
          -1.106113,
          37.945128
        ]
      },
      "properties": {
        "id": "4244",
        "id_jardin": 4244,
        "nombre": "Zona Verde Urbanización Residencial El Mirador",
        "pedania": "Algezares",
        "tipo": "Zona Verde",
        "zona": "Ladera_Monte_Sur"
      }
    },
    {
      "type": "Feature",
      "geometry": {
        "type": "Point",
        "coordinates": [
          -1.092253,
          37.954286
        ]
      },
      "properties": {
        "id": "2772",
        "id_jardin": 2772,
        "nombre": "Jardín Calle Poniente",
        "pedania": "Garres y Lages",
        "tipo": "Zona Verde",
        "zona": "Ladera_Monte_Sur"
      }
    },
    {
      "type": "Feature",
      "geometry": {
        "type": "Point",
        "coordinates": [
          -1.078761,
          37.959079
        ]
      },
      "properties": {
        "id": "2816",
        "id_jardin": 2816,
        "nombre": "Zona Verde Iglesia Alta",
        "pedania": "Garres y Lages",
        "tipo": "Zona Verde",
        "zona": "Ladera_Monte_Sur"
      }
    },
    {
      "type": "Feature",
      "geometry": {
        "type": "Point",
        "coordinates": [
          -1.091214,
          37.954944
        ]
      },
      "properties": {
        "id": "3547",
        "id_jardin": 3547,
        "nombre": "Pipican Virgen del Mar",
        "pedania": "Garres y Lages",
        "tipo": "Zona Verde",
        "zona": "Ladera_Monte_Sur"
      }
    },
    {
      "type": "Feature",
      "geometry": {
        "type": "Point",
        "coordinates": [
          -1.146055,
          37.942472
        ]
      },
      "properties": {
        "id": "2400",
        "id_jardin": 2400,
        "nombre": "Jardín Directora Virginia Martínez",
        "pedania": "La Alberca",
        "tipo": "Zona Verde",
        "zona": "Ladera_Monte_Sur"
      }
    },
    {
      "type": "Feature",
      "geometry": {
        "type": "Point",
        "coordinates": [
          -1.138015,
          37.942115
        ]
      },
      "properties": {
        "id": "2496",
        "id_jardin": 2496,
        "nombre": "Jardín Alberca de Salamanca",
        "pedania": "La Alberca",
        "tipo": "Zona Verde",
        "zona": "Ladera_Monte_Sur"
      }
    },
    {
      "type": "Feature",
      "geometry": {
        "type": "Point",
        "coordinates": [
          -1.147278,
          37.935822
        ]
      },
      "properties": {
        "id": "2500",
        "id_jardin": 2500,
        "nombre": "Jardín Los Almendros",
        "pedania": "La Alberca",
        "tipo": "Zona Verde",
        "zona": "Ladera_Monte_Sur"
      }
    },
    {
      "type": "Feature",
      "geometry": {
        "type": "Point",
        "coordinates": [
          -1.148419,
          37.93324
        ]
      },
      "properties": {
        "id": "3759",
        "id_jardin": 3759,
        "nombre": "Zeca Montevida",
        "pedania": "La Alberca",
        "tipo": "Zona Verde",
        "zona": "Ladera_Monte_Sur"
      }
    },
    {
      "type": "Feature",
      "geometry": {
        "type": "Point",
        "coordinates": [
          -1.148345,
          37.942373
        ]
      },
      "properties": {
        "id": "4242",
        "id_jardin": 4242,
        "nombre": "Jardín Nueva Alberca",
        "pedania": "La Alberca",
        "tipo": "Zona Verde",
        "zona": "Ladera_Monte_Sur"
      }
    },
    {
      "type": "Feature",
      "geometry": {
        "type": "Point",
        "coordinates": [
          -1.151953,
          37.983876
        ]
      },
      "properties": {
        "id": "3550",
        "id_jardin": 3550,
        "nombre": "Malecón-Bajo Puente Autovía",
        "pedania": "La Alberca",
        "tipo": "Zona Verde",
        "zona": "Ladera_Monte_Sur"
      }
    },
    {
      "type": "Feature",
      "geometry": {
        "type": "Point",
        "coordinates": [
          -1.139545,
          37.981833
        ]
      },
      "properties": {
        "id": "3550_2",
        "id_jardin": 3550,
        "nombre": "Malecón-Bajo Puente Autovía",
        "pedania": "La Alberca",
        "tipo": "Zona Verde",
        "zona": "Ladera_Monte_Sur"
      }
    },
    {
      "type": "Feature",
      "geometry": {
        "type": "Point",
        "coordinates": [
          -1.125897,
          37.944788
        ]
      },
      "properties": {
        "id": "2707",
        "id_jardin": 2707,
        "nombre": "Jardín Avenida Juan Carlos I - Calle Cruz",
        "pedania": "Santo Ángel",
        "tipo": "Zona Verde",
        "zona": "Ladera_Monte_Sur"
      }
    },
    {
      "type": "Feature",
      "geometry": {
        "type": "Point",
        "coordinates": [
          -1.131632,
          37.942168
        ]
      },
      "properties": {
        "id": "2710",
        "id_jardin": 2710,
        "nombre": "Jardín del Charco",
        "pedania": "Santo Ángel",
        "tipo": "Zona Verde",
        "zona": "Ladera_Monte_Sur"
      }
    },
    {
      "type": "Feature",
      "geometry": {
        "type": "Point",
        "coordinates": [
          -1.129616,
          37.940715
        ]
      },
      "properties": {
        "id": "2714",
        "id_jardin": 2714,
        "nombre": "Jardín de los Naranjos",
        "pedania": "Santo Ángel",
        "tipo": "Zona Verde",
        "zona": "Ladera_Monte_Sur"
      }
    },
    {
      "type": "Feature",
      "geometry": {
        "type": "Point",
        "coordinates": [
          -1.12792,
          37.942251
        ]
      },
      "properties": {
        "id": "2716",
        "id_jardin": 2716,
        "nombre": "Zona Verde Calle La Luz",
        "pedania": "Santo Ángel",
        "tipo": "Zona Verde",
        "zona": "Ladera_Monte_Sur"
      }
    },
    {
      "type": "Feature",
      "geometry": {
        "type": "Point",
        "coordinates": [
          -1.130322,
          37.943576
        ]
      },
      "properties": {
        "id": "2717",
        "id_jardin": 2717,
        "nombre": "Jardín Avenida Juan Carlos I - Calle Moreras",
        "pedania": "Santo Ángel",
        "tipo": "Zona Verde",
        "zona": "Ladera_Monte_Sur"
      }
    },
    {
      "type": "Feature",
      "geometry": {
        "type": "Point",
        "coordinates": [
          -1.128944,
          37.939118
        ]
      },
      "properties": {
        "id": "2725",
        "id_jardin": 2725,
        "nombre": "Jardín Calle Sauce",
        "pedania": "Santo Ángel",
        "tipo": "Zona Verde",
        "zona": "Ladera_Monte_Sur"
      }
    },
    {
      "type": "Feature",
      "geometry": {
        "type": "Point",
        "coordinates": [
          -1.057121,
          37.976597
        ]
      },
      "properties": {
        "id": "2570",
        "id_jardin": 2570,
        "nombre": "Jardín Montegrande",
        "pedania": "Torreagüera",
        "tipo": "Zona Verde",
        "zona": "Ladera_Monte_Sur"
      }
    },
    {
      "type": "Feature",
      "geometry": {
        "type": "Point",
        "coordinates": [
          -1.053711,
          37.989156
        ]
      },
      "properties": {
        "id": "4079",
        "id_jardin": 4079,
        "nombre": "Campo de Fútbol",
        "pedania": "Torreagüera",
        "tipo": "Zonas Verdes Otros Servicios",
        "zona": "Ladera_Monte_Sur"
      }
    }
  ]
}