{
  "type": "FeatureCollection",
  "name": "Murcia_Oeste",
  "features": [
    {
      "type": "Feature",
      "id": 2403,
      "geometry": {
        "type": "Point",
        "coordinates": [
          -1.154449,
          37.954927
        ]
      },
      "properties": {
        "id": 2403,
        "nombre": "Jardín Virgen de los Dolores",
        "pedania": "Aljucer",
        "tipo": "Zona Verde",
        "zona": "Murcia_Oeste",
        "description": "Pedanía: Aljucer | Tipo: Zona Verde | ID: 2403 | Revisar: AÑADIR_LINK_FORMULARIO"
      }
    },
    {
      "type": "Feature",
      "id": 2406,
      "geometry": {
        "type": "Point",
        "coordinates": [
          -1.148089,
          37.952785
        ]
      },
      "properties": {
        "id": 2406,
        "nombre": "Jardín Calle del Aire",
        "pedania": "Aljucer",
        "tipo": "Zona Verde",
        "zona": "Murcia_Oeste",
        "description": "Pedanía: Aljucer | Tipo: Zona Verde | ID: 2406 | Revisar: AÑADIR_LINK_FORMULARIO"
      }
    },
    {
      "type": "Feature",
      "id": 2410,
      "geometry": {
        "type": "Point",
        "coordinates": [
          -1.150753,
          37.958238
        ]
      },
      "properties": {
        "id": 2410,
        "nombre": "Jardín Carril del Palmeral",
        "pedania": "Aljucer",
        "tipo": "Zona Verde",
        "zona": "Murcia_Oeste",
        "description": "Pedanía: Aljucer | Tipo: Zona Verde | ID: 2410 | Revisar: AÑADIR_LINK_FORMULARIO"
      }
    },
    {
      "type": "Feature",
      "id": 2417,
      "geometry": {
        "type": "Point",
        "coordinates": [
          -1.169554,
          37.93826
        ]
      },
      "properties": {
        "id": 2417,
        "nombre": "Jardín Cronista Carlos Valcárcel",
        "pedania": "El Palmar",
        "tipo": "Zona Verde",
        "zona": "Murcia_Oeste",
        "description": "Pedanía: El Palmar | Tipo: Zona Verde | ID: 2417 | Revisar: AÑADIR_LINK_FORMULARIO"
      }
    },
    {
      "type": "Feature",
      "id": 2420,
      "geometry": {
        "type": "Point",
        "coordinates": [
          -1.170122,
          37.940323
        ]
      },
      "properties": {
        "id": 2420,
        "nombre": "Plaza José María Párraga",
        "pedania": "El Palmar",
        "tipo": "Zona Verde",
        "zona": "Murcia_Oeste",
        "description": "Pedanía: El Palmar | Tipo: Zona Verde | ID: 2420 | Revisar: AÑADIR_LINK_FORMULARIO"
      }
    },
    {
      "type": "Feature",
      "id": 2421,
      "geometry": {
        "type": "Point",
        "coordinates": [
          -1.162646,
          37.941462
        ]
      },
      "properties": {
        "id": 2421,
        "nombre": "Jardín Calle San Diego",
        "pedania": "El Palmar",
        "tipo": "Zona Verde",
        "zona": "Murcia_Oeste",
        "description": "Pedanía: El Palmar | Tipo: Zona Verde | ID: 2421 | Revisar: AÑADIR_LINK_FORMULARIO"
      }
    },
    {
      "type": "Feature",
      "id": 2453,
      "geometry": {
        "type": "Point",
        "coordinates": [
          -1.161574,
          37.937077
        ]
      },
      "properties": {
        "id": 2453,
        "nombre": "Jardín Calle Mayor-San Roque",
        "pedania": "El Palmar",
        "tipo": "Zona Verde",
        "zona": "Murcia_Oeste",
        "description": "Pedanía: El Palmar | Tipo: Zona Verde | ID: 2453 | Revisar: AÑADIR_LINK_FORMULARIO"
      }
    },
    {
      "type": "Feature",
      "id": 2632,
      "geometry": {
        "type": "Point",
        "coordinates": [
          -1.169102,
          37.934409
        ]
      },
      "properties": {
        "id": 2632,
        "nombre": "Parque Don Jaime Sotos",
        "pedania": "El Palmar",
        "tipo": "Zona Verde",
        "zona": "Murcia_Oeste",
        "description": "Pedanía: El Palmar | Tipo: Zona Verde | ID: 2632 | Revisar: AÑADIR_LINK_FORMULARIO"
      }
    },
    {
      "type": "Feature",
      "id": 2632,
      "geometry": {
        "type": "Point",
        "coordinates": [
          -1.168294,
          37.934177
        ]
      },
      "properties": {
        "id": 2632,
        "nombre": "Parque Don Jaime Sotos",
        "pedania": "El Palmar",
        "tipo": "Zona Verde",
        "zona": "Murcia_Oeste",
        "description": "Pedanía: El Palmar | Tipo: Zona Verde | ID: 2632 | Revisar: AÑADIR_LINK_FORMULARIO"
      }
    },
    {
      "type": "Feature",
      "id": 2671,
      "geometry": {
        "type": "Point",
        "coordinates": [
          -1.167927,
          37.927859
        ]
      },
      "properties": {
        "id": 2671,
        "nombre": "Pepe Pintado",
        "pedania": "El Palmar",
        "tipo": "Zona Verde",
        "zona": "Murcia_Oeste",
        "description": "Pedanía: El Palmar | Tipo: Zona Verde | ID: 2671 | Revisar: AÑADIR_LINK_FORMULARIO"
      }
    },
    {
      "type": "Feature",
      "id": 3529,
      "geometry": {
        "type": "Point",
        "coordinates": [
          -1.169355,
          37.940199
        ]
      },
      "properties": {
        "id": 3529,
        "nombre": "Plaza Pintor Almela Costa",
        "pedania": "El Palmar",
        "tipo": "Zona Verde",
        "zona": "Murcia_Oeste",
        "description": "Pedanía: El Palmar | Tipo: Zona Verde | ID: 3529 | Revisar: AÑADIR_LINK_FORMULARIO"
      }
    },
    {
      "type": "Feature",
      "id": 4543,
      "geometry": {
        "type": "Point",
        "coordinates": [
          -1.157467,
          37.942511
        ]
      },
      "properties": {
        "id": 4543,
        "nombre": "Zona Verde Carretera Alberca",
        "pedania": "El Palmar",
        "tipo": "Zona Verde",
        "zona": "Murcia_Oeste",
        "description": "Pedanía: El Palmar | Tipo: Zona Verde | ID: 4543 | Revisar: AÑADIR_LINK_FORMULARIO"
      }
    },
    {
      "type": "Feature",
      "id": 2659,
      "geometry": {
        "type": "Point",
        "coordinates": [
          -1.166603,
          37.966019
        ]
      },
      "properties": {
        "id": 2659,
        "nombre": "Jardín Joaquín García Cabezos",
        "pedania": "Era Alta",
        "tipo": "Zona Verde",
        "zona": "Murcia_Oeste",
        "description": "Pedanía: Era Alta | Tipo: Zona Verde | ID: 2659 | Revisar: AÑADIR_LINK_FORMULARIO"
      }
    },
    {
      "type": "Feature",
      "id": 2664,
      "geometry": {
        "type": "Point",
        "coordinates": [
          -1.167812,
          37.968397
        ]
      },
      "properties": {
        "id": 2664,
        "nombre": "Jardín Príncipe Felipe",
        "pedania": "Era Alta",
        "tipo": "Zona Verde",
        "zona": "Murcia_Oeste",
        "description": "Pedanía: Era Alta | Tipo: Zona Verde | ID: 2664 | Revisar: AÑADIR_LINK_FORMULARIO"
      }
    },
    {
      "type": "Feature",
      "id": 2898,
      "geometry": {
        "type": "Point",
        "coordinates": [
          -1.174177,
          37.999468
        ]
      },
      "properties": {
        "id": 2898,
        "nombre": "Jardín La Tirolina",
        "pedania": "Guadalupe",
        "tipo": "Zona Verde",
        "zona": "Murcia_Oeste",
        "description": "Pedanía: Guadalupe | Tipo: Zona Verde | ID: 2898 | Revisar: AÑADIR_LINK_FORMULARIO"
      }
    },
    {
      "type": "Feature",
      "id": 2901,
      "geometry": {
        "type": "Point",
        "coordinates": [
          -1.173244,
          38.002223
        ]
      },
      "properties": {
        "id": 2901,
        "nombre": "Jardín de la Libertad",
        "pedania": "Guadalupe",
        "tipo": "Zona Verde",
        "zona": "Murcia_Oeste",
        "description": "Pedanía: Guadalupe | Tipo: Zona Verde | ID: 2901 | Revisar: AÑADIR_LINK_FORMULARIO"
      }
    },
    {
      "type": "Feature",
      "id": 3538,
      "geometry": {
        "type": "Point",
        "coordinates": [
          -1.177939,
          38.000905
        ]
      },
      "properties": {
        "id": 3538,
        "nombre": "Zona Verde Reyes Católicos",
        "pedania": "Guadalupe",
        "tipo": "Zona Verde",
        "zona": "Murcia_Oeste",
        "description": "Pedanía: Guadalupe | Tipo: Zona Verde | ID: 3538 | Revisar: AÑADIR_LINK_FORMULARIO"
      }
    },
    {
      "type": "Feature",
      "id": 2938,
      "geometry": {
        "type": "Point",
        "coordinates": [
          -1.218124,
          37.986223
        ]
      },
      "properties": {
        "id": 2938,
        "nombre": "Plaza de la Ermita",
        "pedania": "Javalí Nuevo",
        "tipo": "Zona Verde",
        "zona": "Murcia_Oeste",
        "description": "Pedanía: Javalí Nuevo | Tipo: Zona Verde | ID: 2938 | Revisar: AÑADIR_LINK_FORMULARIO"
      }
    },
    {
      "type": "Feature",
      "id": 2938,
      "geometry": {
        "type": "Point",
        "coordinates": [
          -1.217703,
          37.986375
        ]
      },
      "properties": {
        "id": 2938,
        "nombre": "Plaza de la Ermita",
        "pedania": "Javalí Nuevo",
        "tipo": "Zona Verde",
        "zona": "Murcia_Oeste",
        "description": "Pedanía: Javalí Nuevo | Tipo: Zona Verde | ID: 2938 | Revisar: AÑADIR_LINK_FORMULARIO"
      }
    },
    {
      "type": "Feature",
      "id": 2955,
      "geometry": {
        "type": "Point",
        "coordinates": [
          -1.217083,
          37.984931
        ]
      },
      "properties": {
        "id": 2955,
        "nombre": "Jardín Constitución",
        "pedania": "Javalí Nuevo",
        "tipo": "Zona Verde",
        "zona": "Murcia_Oeste",
        "description": "Pedanía: Javalí Nuevo | Tipo: Zona Verde | ID: 2955 | Revisar: AÑADIR_LINK_FORMULARIO"
      }
    },
    {
      "type": "Feature",
      "id": 3793,
      "geometry": {
        "type": "Point",
        "coordinates": [
          -1.216296,
          37.994585
        ]
      },
      "properties": {
        "id": 3793,
        "nombre": "Contraparada Zona Exterior-Sur",
        "pedania": "Javalí Nuevo",
        "tipo": "Zona Verde",
        "zona": "Murcia_Oeste",
        "description": "Pedanía: Javalí Nuevo | Tipo: Zona Verde | ID: 3793 | Revisar: AÑADIR_LINK_FORMULARIO"
      }
    },
    {
      "type": "Feature",
      "id": 3794,
      "geometry": {
        "type": "Point",
        "coordinates": [
          -1.218364,
          37.994706
        ]
      },
      "properties": {
        "id": 3794,
        "nombre": "Contraparada Mirador-Zona Infantil",
        "pedania": "Javalí Nuevo",
        "tipo": "Zona Verde",
        "zona": "Murcia_Oeste",
        "description": "Pedanía: Javalí Nuevo | Tipo: Zona Verde | ID: 3794 | Revisar: AÑADIR_LINK_FORMULARIO"
      }
    },
    {
      "type": "Feature",
      "id": 3794,
      "geometry": {
        "type": "Point",
        "coordinates": [
          -1.217801,
          37.994844
        ]
      },
      "properties": {
        "id": 3794,
        "nombre": "Contraparada Mirador-Zona Infantil",
        "pedania": "Javalí Nuevo",
        "tipo": "Zona Verde",
        "zona": "Murcia_Oeste",
        "description": "Pedanía: Javalí Nuevo | Tipo: Zona Verde | ID: 3794 | Revisar: AÑADIR_LINK_FORMULARIO"
      }
    },
    {
      "type": "Feature",
      "id": 2826,
      "geometry": {
        "type": "Point",
        "coordinates": [
          -1.201242,
          37.991636
        ]
      },
      "properties": {
        "id": 2826,
        "nombre": "Zona Verde Calle Constitución",
        "pedania": "Javalí Viejo",
        "tipo": "Zona Verde",
        "zona": "Murcia_Oeste",
        "description": "Pedanía: Javalí Viejo | Tipo: Zona Verde | ID: 2826 | Revisar: AÑADIR_LINK_FORMULARIO"
      }
    },
    {
      "type": "Feature",
      "id": 3517,
      "geometry": {
        "type": "Point",
        "coordinates": [
          -1.217801,
          37.997225
        ]
      },
      "properties": {
        "id": 3517,
        "nombre": "Paraje Azud de Contraparada",
        "pedania": "Javalí Viejo",
        "tipo": "Zona Verde",
        "zona": "Murcia_Oeste",
        "description": "Pedanía: Javalí Viejo | Tipo: Zona Verde | ID: 3517 | Revisar: AÑADIR_LINK_FORMULARIO"
      }
    },
    {
      "type": "Feature",
      "id": 3736,
      "geometry": {
        "type": "Point",
        "coordinates": [
          -1.216569,
          37.995996
        ]
      },
      "properties": {
        "id": 3736,
        "nombre": "Contraparada Laterales y Zona Boscosa",
        "pedania": "Javalí Viejo",
        "tipo": "Zona Verde",
        "zona": "Murcia_Oeste",
        "description": "Pedanía: Javalí Viejo | Tipo: Zona Verde | ID: 3736 | Revisar: AÑADIR_LINK_FORMULARIO"
      }
    },
    {
      "type": "Feature",
      "id": 3564,
      "geometry": {
        "type": "Point",
        "coordinates": [
          -1.181337,
          37.977317
        ]
      },
      "properties": {
        "id": 3564,
        "nombre": "Pistas Deportivas Colegio",
        "pedania": "La Raya",
        "tipo": "Zona Verde",
        "zona": "Murcia_Oeste",
        "description": "Pedanía: La Raya | Tipo: Zona Verde | ID: 3564 | Revisar: AÑADIR_LINK_FORMULARIO"
      }
    },
    {
      "type": "Feature",
      "id": 2633,
      "geometry": {
        "type": "Point",
        "coordinates": [
          -1.170481,
          37.971904
        ]
      },
      "properties": {
        "id": 2633,
        "nombre": "Plaza Iglesia",
        "pedania": "Nonduermas",
        "tipo": "Zona Verde",
        "zona": "Murcia_Oeste",
        "description": "Pedanía: Nonduermas | Tipo: Zona Verde | ID: 2633 | Revisar: AÑADIR_LINK_FORMULARIO"
      }
    },
    {
      "type": "Feature",
      "id": 2639,
      "geometry": {
        "type": "Point",
        "coordinates": [
          -1.17309,
          37.970265
        ]
      },
      "properties": {
        "id": 2639,
        "nombre": "Jardín Escultor Francisco Salzillo",
        "pedania": "Nonduermas",
        "tipo": "Zona Verde",
        "zona": "Murcia_Oeste",
        "description": "Pedanía: Nonduermas | Tipo: Zona Verde | ID: 2639 | Revisar: AÑADIR_LINK_FORMULARIO"
      }
    },
    {
      "type": "Feature",
      "id": 2640,
      "geometry": {
        "type": "Point",
        "coordinates": [
          -1.171745,
          37.972253
        ]
      },
      "properties": {
        "id": 2640,
        "nombre": "Plaza Gregorio Pérez Rodríguez",
        "pedania": "Nonduermas",
        "tipo": "Zona Verde",
        "zona": "Murcia_Oeste",
        "description": "Pedanía: Nonduermas | Tipo: Zona Verde | ID: 2640 | Revisar: AÑADIR_LINK_FORMULARIO"
      }
    },
    {
      "type": "Feature",
      "id": 4886,
      "geometry": {
        "type": "Point",
        "coordinates": [
          -1.183545,
          37.964661
        ]
      },
      "properties": {
        "id": 4886,
        "nombre": "Zona Verde Ermita de Burgos",
        "pedania": "Nonduermas",
        "tipo": "Zona Verde",
        "zona": "Murcia_Oeste",
        "description": "Pedanía: Nonduermas | Tipo: Zona Verde | ID: 4886 | Revisar: AÑADIR_LINK_FORMULARIO"
      }
    },
    {
      "type": "Feature",
      "id": 2519,
      "geometry": {
        "type": "Point",
        "coordinates": [
          -1.17716,
          37.985591
        ]
      },
      "properties": {
        "id": 2519,
        "nombre": "Plaza Iglesia",
        "pedania": "Rincón de Beniscornia",
        "tipo": "Zona Verde",
        "zona": "Murcia_Oeste",
        "description": "Pedanía: Rincón de Beniscornia | Tipo: Zona Verde | ID: 2519 | Revisar: AÑADIR_LINK_FORMULARIO"
      }
    },
    {
      "type": "Feature",
      "id": 2521,
      "geometry": {
        "type": "Point",
        "coordinates": [
          -1.178764,
          37.984756
        ]
      },
      "properties": {
        "id": 2521,
        "nombre": "Jardín Molino del Batán",
        "pedania": "Rincón de Beniscornia",
        "tipo": "Zona Verde",
        "zona": "Murcia_Oeste",
        "description": "Pedanía: Rincón de Beniscornia | Tipo: Zona Verde | ID: 2521 | Revisar: AÑADIR_LINK_FORMULARIO"
      }
    },
    {
      "type": "Feature",
      "id": 2001,
      "geometry": {
        "type": "Point",
        "coordinates": [
          -1.176099,
          37.957271
        ]
      },
      "properties": {
        "id": 2001,
        "nombre": "Avenida San Ginés",
        "pedania": "San Ginés",
        "tipo": "Arbolado Viario",
        "zona": "Murcia_Oeste",
        "description": "Pedanía: San Ginés | Tipo: Arbolado Viario | ID: 2001 | Revisar: AÑADIR_LINK_FORMULARIO"
      }
    },
    {
      "type": "Feature",
      "id": 2488,
      "geometry": {
        "type": "Point",
        "coordinates": [
          -1.177314,
          37.95496
        ]
      },
      "properties": {
        "id": 2488,
        "nombre": "Zona Verde Calle Escuelas",
        "pedania": "San Ginés",
        "tipo": "Zona Verde",
        "zona": "Murcia_Oeste",
        "description": "Pedanía: San Ginés | Tipo: Zona Verde | ID: 2488 | Revisar: AÑADIR_LINK_FORMULARIO"
      }
    },
    {
      "type": "Feature",
      "id": 2488,
      "geometry": {
        "type": "Point",
        "coordinates": [
          -1.177346,
          37.955085
        ]
      },
      "properties": {
        "id": 2488,
        "nombre": "Zona Verde Calle Escuelas",
        "pedania": "San Ginés",
        "tipo": "Zona Verde",
        "zona": "Murcia_Oeste",
        "description": "Pedanía: San Ginés | Tipo: Zona Verde | ID: 2488 | Revisar: AÑADIR_LINK_FORMULARIO"
      }
    },
    {
      "type": "Feature",
      "id": 2511,
      "geometry": {
        "type": "Point",
        "coordinates": [
          -1.17587,
          37.952268
        ]
      },
      "properties": {
        "id": 2511,
        "nombre": "Jardín Calle Mayor",
        "pedania": "San Ginés",
        "tipo": "Zona Verde",
        "zona": "Murcia_Oeste",
        "description": "Pedanía: San Ginés | Tipo: Zona Verde | ID: 2511 | Revisar: AÑADIR_LINK_FORMULARIO"
      }
    },
    {
      "type": "Feature",
      "id": 3238,
      "geometry": {
        "type": "Point",
        "coordinates": [
          -1.179536,
          37.958344
        ]
      },
      "properties": {
        "id": 3238,
        "nombre": "Plaza Ermita",
        "pedania": "San Ginés",
        "tipo": "Arbolado Viario",
        "zona": "Murcia_Oeste",
        "description": "Pedanía: San Ginés | Tipo: Arbolado Viario | ID: 3238 | Revisar: AÑADIR_LINK_FORMULARIO"
      }
    }
  ]
}