{
  "type": "FeatureCollection",
  "features": [
    {
      "type": "Feature",
      "geometry": {
        "type": "Point",
        "coordinates": [
          -1.130865,
          37.869257
        ]
      },
      "properties": {
        "id": "2847",
        "id_jardin": 2847,
        "nombre": "Jardín Junto Alcaldía",
        "pedania": "Baños y Mendigo",
        "tipo": "Zona Verde",
        "zona": "Pedanias_Lejanas"
      }
    },
    {
      "type": "Feature",
      "geometry": {
        "type": "Point",
        "coordinates": [
          -1.368765,
          37.94073
        ]
      },
      "properties": {
        "id": "2978",
        "id_jardin": 2978,
        "nombre": "Jardín Centro",
        "pedania": "Barqueros",
        "tipo": "Zona Verde",
        "zona": "Pedanias_Lejanas"
      }
    },
    {
      "type": "Feature",
      "geometry": {
        "type": "Point",
        "coordinates": [
          -0.99202,
          37.979272
        ]
      },
      "properties": {
        "id": "2667",
        "id_jardin": 2667,
        "nombre": "Jardín Iglesia",
        "pedania": "Cañadas de San Pedro",
        "tipo": "Zona Verde",
        "zona": "Pedanias_Lejanas"
      }
    },
    {
      "type": "Feature",
      "geometry": {
        "type": "Point",
        "coordinates": [
          -1.209287,
          37.82644
        ]
      },
      "properties": {
        "id": "2993",
        "id_jardin": 2993,
        "nombre": "Jardín Casas Abajo",
        "pedania": "Carrascoy y La Murta",
        "tipo": "Zona Verde",
        "zona": "Pedanias_Lejanas"
      }
    },
    {
      "type": "Feature",
      "geometry": {
        "type": "Point",
        "coordinates": [
          -1.211056,
          37.827662
        ]
      },
      "properties": {
        "id": "3514",
        "id_jardin": 3514,
        "nombre": "Subida Plaza de la Cruz",
        "pedania": "Carrascoy y La Murta",
        "tipo": "Arbolado Viario",
        "zona": "Pedanias_Lejanas"
      }
    },
    {
      "type": "Feature",
      "geometry": {
        "type": "Point",
        "coordinates": [
          -1.161882,
          37.826984
        ]
      },
      "properties": {
        "id": "2942",
        "id_jardin": 2942,
        "nombre": "Jardín Iglesia",
        "pedania": "Corvera",
        "tipo": "Zona Verde",
        "zona": "Pedanias_Lejanas"
      }
    },
    {
      "type": "Feature",
      "geometry": {
        "type": "Point",
        "coordinates": [
          -1.155321,
          37.832426
        ]
      },
      "properties": {
        "id": "2944",
        "id_jardin": 2944,
        "nombre": "Jardín Libertad",
        "pedania": "Corvera",
        "tipo": "Zona Verde",
        "zona": "Pedanias_Lejanas"
      }
    },
    {
      "type": "Feature",
      "geometry": {
        "type": "Point",
        "coordinates": [
          -1.010008,
          37.881607
        ]
      },
      "properties": {
        "id": "2690",
        "id_jardin": 2690,
        "nombre": "Jardín Centro Municipal",
        "pedania": "Gea y Truyols",
        "tipo": "Zona Verde",
        "zona": "Pedanias_Lejanas"
      }
    },
    {
      "type": "Feature",
      "geometry": {
        "type": "Point",
        "coordinates": [
          -1.010797,
          37.879689
        ]
      },
      "properties": {
        "id": "2696",
        "id_jardin": 2696,
        "nombre": "Plaza Iglesia",
        "pedania": "Gea y Truyols",
        "tipo": "Zona Verde",
        "zona": "Pedanias_Lejanas"
      }
    },
    {
      "type": "Feature",
      "geometry": {
        "type": "Point",
        "coordinates": [
          -0.941042,
          37.850105
        ]
      },
      "properties": {
        "id": "2251",
        "id_jardin": 2251,
        "nombre": "Molino",
        "pedania": "Jeronimo y Avileses",
        "tipo": "Arbolado Viario",
        "zona": "Pedanias_Lejanas"
      }
    },
    {
      "type": "Feature",
      "geometry": {
        "type": "Point",
        "coordinates": [
          -0.942325,
          37.849242
        ]
      },
      "properties": {
        "id": "2777",
        "id_jardin": 2777,
        "nombre": "Plaza Los Peruchos",
        "pedania": "Jeronimo y Avileses",
        "tipo": "Zona Verde",
        "zona": "Pedanias_Lejanas"
      }
    },
    {
      "type": "Feature",
      "geometry": {
        "type": "Point",
        "coordinates": [
          -1.081431,
          37.730619
        ]
      },
      "properties": {
        "id": "2741",
        "id_jardin": 2741,
        "nombre": "Jardín Calle Río Guadiana",
        "pedania": "Lobosillo",
        "tipo": "Zona Verde",
        "zona": "Pedanias_Lejanas"
      }
    },
    {
      "type": "Feature",
      "geometry": {
        "type": "Point",
        "coordinates": [
          -1.085786,
          37.729734
        ]
      },
      "properties": {
        "id": "4822",
        "id_jardin": 4822,
        "nombre": "Zona Verde José Sánchez-Centro Juvenil",
        "pedania": "Lobosillo",
        "tipo": "Zona Verde",
        "zona": "Pedanias_Lejanas"
      }
    },
    {
      "type": "Feature",
      "geometry": {
        "type": "Point",
        "coordinates": [
          -1.076555,
          37.816898
        ]
      },
      "properties": {
        "id": "2695",
        "id_jardin": 2695,
        "nombre": "Plaza Centro Municipal",
        "pedania": "Los Martínez del Puerto",
        "tipo": "Zona Verde",
        "zona": "Pedanias_Lejanas"
      }
    },
    {
      "type": "Feature",
      "geometry": {
        "type": "Point",
        "coordinates": [
          -1.076773,
          37.818723
        ]
      },
      "properties": {
        "id": "2697",
        "id_jardin": 2697,
        "nombre": "Parterre Santa Catalina",
        "pedania": "Los Martínez del Puerto",
        "tipo": "Zona Verde",
        "zona": "Pedanias_Lejanas"
      }
    },
    {
      "type": "Feature",
      "geometry": {
        "type": "Point",
        "coordinates": [
          -1.245227,
          37.909109
        ]
      },
      "properties": {
        "id": "2525",
        "id_jardin": 2525,
        "nombre": "Zona Verde Cuevas del Norte",
        "pedania": "Sangonera la Seca",
        "tipo": "Zona Verde",
        "zona": "Pedanias_Lejanas"
      }
    },
    {
      "type": "Feature",
      "geometry": {
        "type": "Point",
        "coordinates": [
          -1.229677,
          37.962855
        ]
      },
      "properties": {
        "id": "2537",
        "id_jardin": 2537,
        "nombre": "Paseo Central 2 Avenida Colón",
        "pedania": "Sangonera la Seca",
        "tipo": "Zona Verde",
        "zona": "Pedanias_Lejanas"
      }
    },
    {
      "type": "Feature",
      "geometry": {
        "type": "Point",
        "coordinates": [
          -1.230922,
          37.963906
        ]
      },
      "properties": {
        "id": "3544",
        "id_jardin": 3544,
        "nombre": "Zeca Calle Juan XXIII",
        "pedania": "Sangonera la Seca",
        "tipo": "Zona Verde",
        "zona": "Pedanias_Lejanas"
      }
    },
    {
      "type": "Feature",
      "geometry": {
        "type": "Point",
        "coordinates": [
          -1.210069,
          37.929309
        ]
      },
      "properties": {
        "id": "2842",
        "id_jardin": 2842,
        "nombre": "Jardín Caracol",
        "pedania": "Sangonera la Verde",
        "tipo": "Zona Verde",
        "zona": "Pedanias_Lejanas"
      }
    },
    {
      "type": "Feature",
      "geometry": {
        "type": "Point",
        "coordinates": [
          -1.209824,
          37.922643
        ]
      },
      "properties": {
        "id": "2849",
        "id_jardin": 2849,
        "nombre": "Jardín Dulcinea",
        "pedania": "Sangonera la Verde",
        "tipo": "Zona Verde",
        "zona": "Pedanias_Lejanas"
      }
    },
    {
      "type": "Feature",
      "geometry": {
        "type": "Point",
        "coordinates": [
          -1.207206,
          37.916236
        ]
      },
      "properties": {
        "id": "2854",
        "id_jardin": 2854,
        "nombre": "Zona Verde Ermita de la Cruz",
        "pedania": "Sangonera la Verde",
        "tipo": "Zona Verde",
        "zona": "Pedanias_Lejanas"
      }
    },
    {
      "type": "Feature",
      "geometry": {
        "type": "Point",
        "coordinates": [
          -1.2032,
          37.932013
        ]
      },
      "properties": {
        "id": "2868",
        "id_jardin": 2868,
        "nombre": "Jardín Urbanización Girasoles",
        "pedania": "Sangonera la Verde",
        "tipo": "Zona Verde",
        "zona": "Pedanias_Lejanas"
      }
    },
    {
      "type": "Feature",
      "geometry": {
        "type": "Point",
        "coordinates": [
          -1.215197,
          37.925144
        ]
      },
      "properties": {
        "id": "4880",
        "id_jardin": 4880,
        "nombre": "Zona Verde Señorío-Sacerdote Juan Sánchez",
        "pedania": "Sangonera la Verde",
        "tipo": "Zona Verde",
        "zona": "Pedanias_Lejanas"
      }
    },
    {
      "type": "Feature",
      "geometry": {
        "type": "Point",
        "coordinates": [
          -1.123435,
          37.776657
        ]
      },
      "properties": {
        "id": "2492",
        "id_jardin": 2492,
        "nombre": "Plaza Iglesia",
        "pedania": "Valladolises y Lo Jurado",
        "tipo": "Zona Verde",
        "zona": "Pedanias_Lejanas"
      }
    },
    {
      "type": "Feature",
      "geometry": {
        "type": "Point",
        "coordinates": [
          -1.123515,
          37.776395
        ]
      },
      "properties": {
        "id": "3512",
        "id_jardin": 3512,
        "nombre": "Zona Verde Miguel de Cervantes",
        "pedania": "Valladolises y Lo Jurado",
        "tipo": "Zona Verde",
        "zona": "Pedanias_Lejanas"
      }
    },
    {
      "type": "Feature",
      "geometry": {
        "type": "Point",
        "coordinates": [
          -1.12351,
          37.776387
        ]
      },
      "properties": {
        "id": "3512_2",
        "id_jardin": 3512,
        "nombre": "Zona Verde Miguel de Cervantes",
        "pedania": "Valladolises y Lo Jurado",
        "tipo": "Zona Verde",
        "zona": "Pedanias_Lejanas"
      }
    }
  ]
}